1 48212C 21031C   22105.95016618 -.00002768  00000+0 -74740-2 0  1057
2 48212  87.9019 232.4010 0001407 102.0779   2.2662 13.14509910    15
1 48212C 21031C   22106.24565229  .00001957  00000+0  52841-2 0  1063
2 48212  87.9020 232.3423 0001409 102.1873 319.6697 13.14504566    17
1 48212C 21031C   22106.56405507 -.00002971  00000+0 -80246-2 0  1069
2 48212  87.9020 232.2790 0001405 102.7094  25.0416 13.14507504    12
1 48212C 21031C   22106.86370786 -.00000923  00000+0 -24916-2 0  1069
2 48212  87.9020 232.2194 0001414 103.3625   1.6008 13.14507195    10
1 48212C 21031C   22107.15849951  .00001078  00000+0  29105-2 0  1073
2 48212  87.9020 232.1609 0001409 103.6030 315.5891 13.14502533    15
1 48212C 21031C   22107.47690229 -.00004644  00000+0 -12542-1 0  1070
2 48212  87.9020 232.0976 0001414 104.1535  20.9261 13.14508525    18
1 48212C 21031C   22107.77655508  .00001693  00000+0  45710-2 0  1077
2 48212  87.9019 232.0380 0001420 104.4251 357.8706 13.14502239    12
1 48212C 21031C   22108.06648563 -.00001486  00000+0 -40120-2 0  1086
2 48212  87.9019 231.9804 0001417 105.0191 288.5087 13.14503379    15
1 48212C 21031C   22108.37515046 -.00002386  00000+0 -64448-2 0  1088
2 48212  87.9018 231.9191 0001428 105.2497 308.1083 13.14505979    19
1 48212C 21031C   22108.61995785 -.00000347  00000+0 -93617-3 0  1083
2 48212  87.9018 231.8704 0001422 105.3387  25.8446 13.14501124    15
1 48212C 21031C   22108.91891619 -.00002168  00000+0 -58544-2 0  1089
2 48212  87.9017 231.8110 0001430 106.0417 359.0635 13.14504681    19
1 48212C 21031C   22109.21370785  .00002460  00000+0  66434-2 0  1090
2 48212  87.9016 231.7525 0001431 106.0672 313.2621 13.14498993    16
1 48212C 21031C   22109.51613841 -.00003243  00000+0 -87577-2 0  1099
2 48212  87.9016 231.6924 0001435 106.6070 303.0680 13.14503825    13
1 48212C 21031C   22109.83593007  .00000704  00000+0  19024-2 0  1094
2 48212  87.9015 231.6288 0001442 106.8875  15.2433 13.14501739    18
1 48212C 21031C   22110.12169397  .00001428  00000+0  38555-2 0  1105
2 48212  87.9015 231.5721 0001439 107.0588 286.5986 13.14498831    13
1 48212C 21031C   22110.35676340 -.00000910  00000+0 -24583-2 0  1104
2 48212  87.9014 231.5254 0001452 107.0739 318.3402 13.14503640    18
1 48212C 21031C   22110.66961064  .00002780  00000+0  75089-2 0  1100
2 48212  87.9014 231.4633 0001448 107.0927 357.9403 13.14498074    16
1 48212C 21031C   22110.97375416 -.00001545  00000+0 -41732-2 0  1102
2 48212  87.9014 231.4029 0001450 107.5378 355.9400 13.14503553    17
1 48212C 21031C   22111.81648563  .00002148  00000+0  58006-2 0  1113
2 48212  87.9015 231.2356 0001466 107.8279  21.3559 13.14502408    16
1 48212C 21031C   22112.25919397  .00003229  00000+0  87208-2 0  1126
2 48212  87.9016 231.1477 0001470 107.6047 315.3748 13.14501962    16
1 48212C 21031C   22112.57620786  .00000151  00000+0  40760-3 0  1126
2 48212  87.9017 231.0848 0001466 107.8110  14.4925 13.14503571    18
1 48212C 21031C   22112.80572175  .00002474  00000+0  66809-2 0  1121
2 48212  87.9018 231.0392 0001476 108.0979  19.6926 13.14504097    12
1 48212C 21031C   22113.10606897  .00002121  00000+0  57291-2 0  1139
2 48212  87.9018 230.9796 0001472 107.9037   0.3883 13.14502947    18
1 48212C 21031C   22113.39877730 -.00002091  00000+0 -56463-2 0  1134
2 48212  87.9019 230.9215 0001481 108.2289 304.4276 13.14509582    14
1 48212C 21031C   22113.54981896 -.00000792  00000+0 -21389-2 0  1135
2 48212  87.9020 230.8915 0001474 108.4611 298.5548 13.14506582    17
1 48212C 21031C   22113.54981896 -.00000792  00000+0 -21391-2 0  1138
2 48212  87.9020 230.8915 0001474 108.4613 298.5546 13.14506582    17
1 48212C 21031C   22114.31057125  .00000721  00000+0  19462-2 0  1140
2 48212  87.9022 230.7406 0001486 108.4997 296.5107 13.14508715    12
1 48212C 21031C   22114.62829119  .00001707  00000+0  46096-2 0  1142
2 48212  87.9024 230.6775 0001482 108.7294 358.9519 13.14505462    17
1 48212C 21031C   22114.93211063 -.00002016  00000+0 -54436-2 0  1142
2 48212  87.9025 230.6172 0001489 109.1494 355.4505 13.14510835    10
1 48212C 21031C   22115.14912451  .00002412  00000+0  65129-2 0  1155
2 48212  87.9025 230.5741 0001488 109.1562 301.8225 13.14505355    11
1 48212C 21031C   22115.46890462 -.00006447  00000+0 -17409-1 0  1158
2 48212  87.9026 230.5107 0001492 109.3320  14.0520 13.14513631    14
1 48212C 21031C   22115.77480740 -.00001146  00000+0 -30955-2 0  1159
2 48212  87.9027 230.4499 0001497 109.2924  20.8709 13.14507743    13
1 48212C 21031C   22115.99808286 -.00002938  00000+0 -79351-2 0  1155
2 48212  87.9027 230.4056 0001492 109.3895 356.7633 13.14507070    15
1 48212C 21031C   22116.29355740  .00000022  00000+0  60414-4 0  1164
2 48212  87.9028 230.3469 0001504 109.4563 314.1479 13.14505465    12
1 48212C 21031C   22116.61266620  .00000273  00000+0  73682-3 0  1166
2 48212  87.9028 230.2836 0001500 109.7662  23.0737 13.14502283    16
1 48212C 21031C   22116.83522406 -.00000954  00000+0 -25769-2 0  1167
2 48212  87.9029 230.2394 0001510 110.3386 355.0876 13.14505556    16
1 48212C 21031C   22117.12862683  .00001204  00000+0  32505-2 0  1178
2 48212  87.9029 230.1811 0001509 110.4953 302.5892 13.14500825    17
1 48212C 21031C   22117.44841850 -.00004623  00000+0 -12486-1 0  1171
2 48212  87.9029 230.1176 0001516 110.9168  14.6221 13.14506856    19
1 48212C 21031C   22117.75293240  .00001439  00000+0  38850-2 0  1173
2 48212  87.9029 230.0571 0001525 111.1543  14.5892 13.14500999    12
1 48212C 21031C   22117.97690230 -.00002961  00000+0 -79964-2 0  1171
2 48212  87.9029 230.0126 0001524 111.4881 353.5228 13.14503917    17
1 48212C 21031C   22118.28001574 -.00000067  00000+0 -17972-3 0  1181
2 48212  87.9029 229.9524 0001540 111.6857 346.9018 13.14502098    11
1 48212C 21031C   22118.59147406 -.00000409  00000+0 -11039-2 0  1187
2 48212  87.9030 229.8906 0001537 111.8337  19.8024 13.14499374    12
1 48212C 21031C   22118.88973795 -.00002504  00000+0 -67624-2 0  1186
2 48212  87.9030 229.8313 0001549 112.3773 349.8944 13.14503005    11
1 48212C 21031C   22119.18523563  .00002160  00000+0  58329-2 0  1193
2 48212  87.9030 229.7726 0001553 112.3796 307.4533 13.14497235    19
1 48212C 21031C   22119.50294396 -.00003175  00000+0 -85743-2 0  1197
2 48212  87.9030 229.7095 0001559 112.6630   9.7704 13.14501223    19
1 48212C 21031C   22119.80327962  .00000359  00000+0  96891-3 0  1192
2 48212  87.9030 229.6498 0001573 112.9726 349.8965 13.14499556    12
1 48212C 21031C   22120.09946017  .00001434  00000+0  38725-2 0  1201
2 48212  87.9031 229.5910 0001571 113.0503 310.6087 13.14496128    17
1 48212C 21031C   22120.40120785 -.00003464  00000+0 -93557-2 0  1203
2 48212  87.9031 229.5310 0001588 113.2206 297.5477 13.14502451    14
1 48212C 21031C   22120.64112683  .00002525  00000+0  68191-2 0  1208
2 48212  87.9032 229.4834 0001587 113.1153 352.3547 13.14495279    11
1 48212C 21031C   22120.94494627 -.00001885  00000+0 -50903-2 0  1204
2 48212  87.9032 229.4230 0001595 113.3932 348.9859 13.14500514    13
1 48212C 21031C   22121.24947174  .00002037  00000+0  55016-2 0  1217
2 48212  87.9033 229.3625 0001608 113.3199 349.3115 13.14498000    17
1 48212C 21031C   22121.54286295 -.00000312  00000+0 -84303-3 0  1218
2 48212  87.9034 229.3043 0001605 113.5678 296.6593 13.14498327    19
1 48212C 21031C   22121.71196016  .00003672  00000+0  99160-2 0  1214
2 48212  87.9034 229.2707 0001614 113.4607  16.5109 13.14496103    18
1 48212C 21031C   22122.01162453 -.00000139  00000+0 -37643-3 0  1223
2 48212  87.9035 229.2112 0001614 113.4037 353.8297 13.14499252    19
1 48212C 21031C   22122.30709906  .00000099  00000+0  26653-3 0  1227
2 48212  87.9035 229.1525 0001629 113.3882 311.2881 13.14501727    17
1 48212C 21031C   22122.54773564  .00000240  00000+0  64897-3 0  1224
2 48212  87.9037 229.1048 0001623 113.3714   9.4007 13.14499398    13
1 48212C 21031C   22122.84876573 -.00000075  00000+0 -20330-3 0  1223
2 48212  87.9037 229.0450 0001636 113.5962 352.8941 13.14502679    19
1 48212C 21031C   22123.14216850  .00003684  00000+0  99493-2 0  1236
2 48212  87.9038 228.9868 0001634 113.3940 300.7511 13.14498034    17
1 48212C 21031C   22123.44529350 -.00002497  00000+0 -67449-2 0  1230
2 48212  87.9039 228.9266 0001642 113.6250 294.1482 13.14504892    19
1 48212C 21031C   22123.76647405  .00002490  00000+0  67239-2 0  1235
2 48212  87.9040 228.8629 0001650 113.5940  13.2061 13.14501994    10
1 48212C 21031C   22124.05086064  .00001372  00000+0  37058-2 0  1241
2 48212  87.9040 228.8065 0001649 113.6544 278.1586 13.14501498    16
1 48212C 21031C   22124.28178655  .00000819  00000+0  22129-2 0  1242
2 48212  87.9040 228.7607 0001656 113.4604 290.5151 13.14504909    16
1 48212C 21031C   22124.59949488  .00002175  00000+0  58732-2 0  1242
2 48212  87.9041 228.6977 0001655 113.5773 353.0100 13.14501566    18
1 48212C 21031C   22124.90331433 -.00001672  00000+0 -45151-2 0  1246
2 48212  87.9040 228.6374 0001664 113.8137 349.6883 13.14507189    11
1 48212C 21031C   22125.20711063  .00002739  00000+0  73977-2 0  1252
2 48212  87.9040 228.5772 0001673 113.7304 346.5841 13.14503435    17
1 48212C 21031C   22125.50053656 -.00001816  00000+0 -49050-2 0  1254
2 48212  87.9040 228.5190 0001671 114.1308 293.9483 13.14506357    11
1 48212C 21031C   22125.67032822  .00003130  00000+0  84534-2 0  1259
2 48212  87.9040 228.4853 0001679 113.9577  17.1560 13.14502398    12
1 48212C 21031C   22125.96998101 -.00001805  00000+0 -48737-2 0  1256
2 48212  87.9039 228.4259 0001680 114.1621 354.1640 13.14506885    13
1 48212C 21031C   22126.18838379  .00002474  00000+0  66814-2 0  1269
2 48212  87.9038 228.3826 0001687 114.1282 307.1395 13.14503611    10
1 48212C 21031C   22126.43037451 -.00003949  00000+0 -10666-1 0  1262
2 48212  87.9038 228.3346 0001690 114.4874  11.2784 13.14509140    19
